[{"OBJECT_NAME":"STARLINK-3699","OBJECT_ID":"2022-025L","EPOCH":"2026-03-09T04:05:59.416512","MEAN_MOTION":15.06396713,"ECCENTRICITY":0.00014968,"INCLINATION":53.0559,"RA_OF_ASC_NODE":33.159,"ARG_OF_PERICENTER":81.9854,"MEAN_ANOMALY":278.1305,"EPHEMERIS_TYPE":0,"CLASSIFICATION_TYPE":"U","NORAD_CAT_ID":51966,"ELEMENT_SET_NO":999,"REV_AT_EPOCH":22084,"BSTAR":3.0695578e-5,"MEAN_MOTION_DOT":1.76e-6,"MEAN_MOTION_DDOT":0},{"OBJECT_NAME":"DISKSAT B","OBJECT_ID":"2025-305B","EPOCH":"2026-03-09T19:33:34.074144","MEAN_MOTION":15.07484556,"ECCENTRICITY":0.00037827,"INCLINATION":45.0018,"RA_OF_ASC_NODE":250.2098,"ARG_OF_PERICENTER":311.4052,"MEAN_ANOMALY":48.6498,"EPHEMERIS_TYPE":0,"CLASSIFICATION_TYPE":"U","NORAD_CAT_ID":67220,"ELEMENT_SET_NO":999,"REV_AT_EPOCH":1231,"BSTAR":0.00082400752,"MEAN_MOTION_DOT":0.00012481,"MEAN_MOTION_DDOT":0}]
