STARLINK-3699           
1 51966U 22025L   26068.17082658  .00000176  00000+0  30696-4 0  9998
2 51966  53.0559  33.1590 0001496  81.9854 278.1305 15.06396713220845
DISKSAT B               
1 67220U 25305B   26068.81497770  .00012481  00000+0  82401-3 0  9990
2 67220  45.0018 250.2098 0003783 311.4052  48.6498 15.07484556 12311
